NORAD_CAT_ID,OBJECT_NAME,OBJECT_TYPE,EPOCH,MEAN_MOTION,ECCENTRICITY,INCLINATION,RA_OF_ASC_NODE,ARG_OF_PERICENTER,MEAN_ANOMALY,BSTAR,MEAN_MOTION_DOT,MEAN_MOTION_DDOT,TLE_LINE0,TLE_LINE1,TLE_LINE2,SEMIMAJOR_AXIS,PERIOD,APOGEE,PERIGEE,DECAYED
55957.0,STARLINK-5884,PAYLOAD,2024-03-11 21:15:49,14.9833106,0.0002972,69.9989,299.5715,267.1826,92.8993,-1.4415e-05,-2.65e-06,0.0,0 STARLINK-5884,1 55957U 23037AV  24071.88598959 -.00000265  00000-0 -14415-4 0  9995,2 55957  69.9989 299.5715 0002972 267.1826  92.8993 14.98331060 55794,6950.19,96.107,574.12,569.989,0.0
55957.0,STARLINK-5884,PAYLOAD,2024-03-12 00:28:03,14.98351154,0.0002784,69.9992,299.2347,265.8953,94.1888,0.00022513,2.596e-05,0.0,0 STARLINK-5884,1 55957U 23037AV  24072.01949056  .00002596  00000-0  22513-3 0  9993,2 55957  69.9992 299.2347 0002784 265.8953  94.1888 14.98351154 55810,6950.127,96.106,573.927,570.058,0.0
55957.0,STARLINK-5884,PAYLOAD,2024-03-12 08:28:41,14.98379543,0.0002622,69.9999,298.3922,277.7302,82.356,0.00053511,6.306e-05,0.0,0 STARLINK-5884,1 55957U 23037AV  24072.35325828  .00006306  00000-0  53511-3 0  9990,2 55957  69.9999 298.3922 0002622 277.7302  82.3560 14.98379543 55860,6950.04,96.104,573.727,570.082,0.0
55957.0,STARLINK-5884,PAYLOAD,2024-03-12 14:53:17,14.9832374,0.000276,69.9987,297.7194,270.8439,89.2404,-2.9289e-05,-4.42e-06,0.0,0 STARLINK-5884,1 55957U 23037AV  24072.62034349 -.00000442  00000-0 -29289-4 0  9998,2 55957  69.9987 297.7194 0002760 270.8439  89.2404 14.98323740 55905,6950.212,96.107,573.996,570.159,0.0
55957.0,STARLINK-5884,PAYLOAD,2024-03-13 14:55:19,14.98321843,0.0002957,69.9963,295.1945,270.1352,89.9468,-0.00011155,-1.423e-05,0.0,0 STARLINK-5884,1 55957U 23037AV  24073.62174916 -.00001423  00000-0 -11155-3 0  9996,2 55957  69.9963 295.1945 0002957 270.1352  89.9468 14.98321843 55718,6950.218,96.108,574.138,570.028,0.0
55957.0,STARLINK-5884,PAYLOAD,2024-03-13 21:19:51,14.98322494,0.0002982,69.9975,294.5211,269.8435,90.2382,-0.00010593,-1.356e-05,0.0,0 STARLINK-5884,1 55957U 23037AV  24073.88878948 -.00001356  00000-0 -10593-3 0  9990,2 55957  69.9975 294.5211 0002982 269.8435  90.2382 14.98322494 56090,6950.216,96.107,574.154,570.009,0.0
55957.0,STARLINK-5884,PAYLOAD,2024-03-14 00:32:07,14.98322211,0.0003048,69.9989,294.1845,269.7737,90.3072,-0.00010686,-1.368e-05,0.0,0 STARLINK-5884,1 55957U 23037AV  24074.02231013 -.00001368  00000-0 -10686-3 0  9999,2 55957  69.9989 294.1845 0003048 269.7737  90.3072 14.98322211 55770,6950.217,96.107,574.2,569.964,0.0
55957.0,STARLINK-5884,PAYLOAD,2024-03-14 13:21:11,14.98318912,0.0003029,69.9981,292.8379,270.9069,89.1743,8.8345e-05,9.61e-06,0.0,0 STARLINK-5884,1 55957U 23037AV  24074.55638333  .00000961  00000-0  88345-4 0  9997,2 55957  69.9981 292.8379 0003029 270.9069  89.1743 14.98318912 56191,6950.227,96.108,574.197,569.987,0.0
55957.0,STARLINK-5884,PAYLOAD,2024-03-14 21:21:51,14.98321527,0.0003049,69.9985,291.9963,271.2237,88.8572,9.0887e-05,9.91e-06,0.0,0 STARLINK-5884,1 55957U 23037AV  24074.89018386  .00000991  00000-0  90887-4 0  9991,2 55957  69.9985 291.9963 0003049 271.2237  88.8572 14.98321527 55907,6950.219,96.108,574.203,569.965,0.0
55957.0,STARLINK-5884,PAYLOAD,2024-03-15 00:34:07,14.98323302,0.0003032,69.9986,291.6596,271.2544,88.8267,0.00010782,1.193e-05,0.0,0 STARLINK-5884,1 55957U 23037AV  24075.02370295  .00001193  00000-0  10782-3 0  9997,2 55957  69.9986 291.6596 0003032 271.2544  88.8267 14.98323302 55926,6950.214,96.107,574.186,569.971,0.0
55957.0,STARLINK-5884,PAYLOAD,2024-03-16 00:36:09,14.98326287,0.0003052,69.9983,289.1345,271.4092,88.6717,0.00010059,1.107e-05,0.0,0 STARLINK-5884,1 55957U 23037AV  24076.02510484  .00001107  00000-0  10059-3 0  9996,2 55957  69.9983 289.1345 0003052 271.4092  88.6717 14.98326287 56417,6950.204,96.107,574.191,569.948,0.0
55957.0,STARLINK-5884,PAYLOAD,2024-03-16 15:01:21,14.9832841,0.000295,69.9985,287.6186,266.8306,93.2516,-1.0763e-05,-2.21e-06,0.0,0 STARLINK-5884,1 55957U 23037AV  24076.62594753 -.00000221  00000-0 -10763-4 0  9994,2 55957  69.9985 287.6186 0002950 266.8306  93.2516 14.98328410 56168,6950.198,96.107,574.113,570.012,0.0
55957.0,STARLINK-5884,PAYLOAD,2024-03-16 21:25:54,14.9832737,0.0003003,69.9983,286.9454,268.3624,91.7191,-2.1329e-05,-3.47e-06,0.0,0 STARLINK-5884,1 55957U 23037AV  24076.89298876 -.00000347  00000-0 -21329-4 0  9999,2 55957  69.9983 286.9454 0003003 268.3624  91.7191 14.98327370 56207,6950.201,96.107,574.153,569.979,0.0
55957.0,STARLINK-5884,PAYLOAD,2024-03-17 13:27:14,14.98327902,0.0003036,69.998,285.2618,269.5999,90.4812,-2.87e-06,-1.27e-06,0.0,0 STARLINK-5884,1 55957U 23037AV  24077.56058794 -.00000127  00000-0 -28700-5 0  9994,2 55957  69.9980 285.2618 0003036 269.5999  90.4812 14.98327902 56647,6950.199,96.107,574.174,569.954,0.0
55957.0,STARLINK-5884,PAYLOAD,2024-03-17 21:27:55,14.98328534,0.0002993,69.9983,284.4209,265.1756,94.9061,4.816e-06,-3.6e-07,0.0,0 STARLINK-5884,1 55957U 23037AV  24077.89438724 -.00000036  00000-0  48160-5 0  9995,2 55957  69.9983 284.4209 0002993 265.1756  94.9061 14.98328534 56356,6950.197,96.107,574.143,569.982,0.0
55957.0,STARLINK-5884,PAYLOAD,2024-03-18 00:40:11,14.98328828,0.0002841,69.9994,284.0827,256.127,103.9573,6.2353e-06,-1.9e-07,0.0,0 STARLINK-5884,1 55957U 23037AV  24078.02790667 -.00000019  00000-0  62353-5 0  9999,2 55957  69.9994 284.0827 0002841 256.1270 103.9573 14.98328828 56370,6950.197,96.107,574.036,570.087,0.0
55957.0,STARLINK-5884,PAYLOAD,2024-03-18 21:29:53,14.98345549,0.0003654,69.997,281.8933,263.2307,96.8436,0.0001626,1.848e-05,0.0,0 STARLINK-5884,1 55957U 23037AV  24078.89576363  .00001848  00000-0  16260-3 0  9993,2 55957  69.9970 281.8933 0003654 263.2307  96.8436 14.98345549 56502,6950.145,96.106,574.549,569.47,0.0
55957.0,STARLINK-5884,PAYLOAD,2024-03-18 23:06:02,14.98345627,0.0002773,69.9974,281.7257,277.7846,82.2998,0.00017671,2.017e-05,0.0,0 STARLINK-5884,1 55957U 23037AV  24078.96252688  .00002017  00000-0  17671-3 0  9998,2 55957  69.9974 281.7257 0002773 277.7846  82.2998 14.98345627 56850,6950.145,96.106,573.937,570.082,0.0
55957.0,STARLINK-5884,PAYLOAD,2024-03-19 21:31:56,14.98328316,0.0003157,69.9978,279.3701,261.6781,98.402,-6.6501e-05,-8.86e-06,0.0,0 STARLINK-5884,1 55957U 23037AV  24079.89718077 -.00000886  00000-0 -66501-4 0  9991,2 55957  69.9978 279.3701 0003157 261.6781  98.4020 14.98328316 56994,6950.198,96.107,574.257,569.869,0.0
55957.0,STARLINK-5884,PAYLOAD,2024-03-20 13:33:17,14.9833062,0.0002793,69.9983,277.6869,273.8261,86.2579,-0.00021048,-2.603e-05,0.0,0 STARLINK-5884,1 55957U 23037AV  24080.56478364 -.00002603  00000-0 -21048-3 0  9994,2 55957  69.9983 277.6869 0002793 273.8261  86.2579 14.98330620 56758,6950.191,96.107,573.997,570.115,0.0
55957.0,STARLINK-5884,PAYLOAD,2024-03-20 21:33:57,14.98327116,0.0002899,69.9982,276.8455,272.8197,87.263,-0.00022544,-2.782e-05,0.0,0 STARLINK-5884,1 55957U 23037AV  24080.89858639 -.00002782  00000-0 -22544-3 0  9997,2 55957  69.9982 276.8455 0002899 272.8197  87.2630 14.98327116 56804,6950.202,96.107,574.082,570.052,0.0
55957.0,STARLINK-5884,PAYLOAD,2024-03-20 23:10:05,14.98327384,0.0002912,69.9982,276.6774,272.7509,87.3316,-0.00021529,-2.661e-05,0.0,0 STARLINK-5884,1 55957U 23037AV  24080.96534608 -.00002661  00000-0 -21529-3 0  9990,2 55957  69.9982 276.6774 0002912 272.7509  87.3316 14.98327384 57156,6950.201,96.107,574.09,570.042,0.0
55957.0,STARLINK-5884,PAYLOAD,2024-03-21 13:35:20,14.98314212,0.0002937,69.9975,275.1614,251.9334,108.1505,-0.00042185,-5.121e-05,0.0,0 STARLINK-5884,1 55957U 23037AV  24081.56620815 -.00005121  00000-0 -42185-3 0  9998,2 55957  69.9975 275.1614 0002937 251.9334 108.1505 14.98314212 57245,6950.242,96.108,574.148,570.065,0.0
55957.0,STARLINK-5884,PAYLOAD,2024-03-21 21:35:59,14.9833187,0.0002696,69.998,274.318,252.1946,107.8919,-0.00031635,-3.866e-05,0.0,0 STARLINK-5884,1 55957U 23037AV  24081.89999705 -.00003866  00000-0 -31635-3 0  9993,2 55957  69.9980 274.3180 0002696 252.1946 107.8919 14.98331870 57293,6950.187,96.107,573.926,570.178,0.0
55957.0,STARLINK-5884,PAYLOAD,2024-03-21 23:12:08,14.98312417,0.0002741,69.9986,274.1539,259.9345,100.1504,1.4825e-05,8.4e-07,0.0,0 STARLINK-5884,1 55957U 23037AV  24081.96676282  .00000084  00000-0  14825-4 0  9993,2 55957  69.9986 274.1539 0002741 259.9345 100.1504 14.98312417 57308,6950.247,96.108,574.017,570.207,0.0
55957.0,STARLINK-5884,PAYLOAD,2024-03-22 13:37:20,14.98323371,0.0003524,69.9963,272.6373,266.8572,93.2183,7.506e-05,8.02e-06,0.0,0 STARLINK-5884,1 55957U 23037AV  24082.56759659  .00000802  00000-0  75060-4 0  9996,2 55957  69.9963 272.6373 0003524 266.8572  93.2183 14.98323371 57059,6950.213,96.107,574.528,569.629,0.0
55957.0,STARLINK-5884,PAYLOAD,2024-03-22 20:01:52,14.98327754,0.0003233,69.9976,271.9613,276.3201,83.7589,0.00017628,2.011e-05,0.0,0 STARLINK-5884,1 55957U 23037AV  24082.83463263  .00002011  00000-0  17628-3 0  9998,2 55957  69.9976 271.9613 0003233 276.3201  83.7589 14.98327754 57439,6950.2,96.107,574.312,569.818,0.0
55957.0,STARLINK-5884,PAYLOAD,2024-03-22 21:38:00,14.98328092,0.0003092,69.998,271.7934,273.4511,86.6294,0.00018511,2.116e-05,0.0,0 STARLINK-5884,1 55957U 23037AV  24082.90139192  .00002116  00000-0  18511-3 0  9995,2 55957  69.9980 271.7934 0003092 273.4511  86.6294 14.98328092 57108,6950.199,96.107,574.213,569.915,0.0
55957.0,STARLINK-5884,PAYLOAD,2024-03-23 20:03:52,14.98331565,0.0003165,69.9978,269.4378,267.4785,92.6012,0.0003397,3.963e-05,0.0,0 STARLINK-5884,1 55957U 23037AV  24083.83602598  .00003963  00000-0  33970-3 0  9990,2 55957  69.9978 269.4378 0003165 267.4785  92.6012 14.98331565 57584,6950.188,96.107,574.253,569.853,0.0
55957.0,STARLINK-5884,PAYLOAD,2024-03-23 21:40:00,14.98335063,0.0003089,69.998,269.2691,266.397,93.6835,0.00031133,3.624e-05,0.0,0 STARLINK-5884,1 55957U 23037AV  24083.90278419  .00003624  00000-0  31133-3 0  9992,2 55957  69.9980 269.2691 0003089 266.3970  93.6835 14.98335063 57257,6950.177,96.107,574.189,569.895,0.0
